STARLINK-2046
1 27354C 21005F   21325.16054826  .00009436  00000-0  63223-3 0  3250
2 27354  53.0537 232.5190 0001851  67.1403  85.2468 15.06388498    12
